[{"OBJECT_NAME":"TEVEL2-6","OBJECT_ID":"2025-052F","EPOCH":"2026-03-09T15:35:24.554400","MEAN_MOTION":15.30760889,"ECCENTRICITY":0.0004769,"INCLINATION":97.4016,"RA_OF_ASC_NODE":325.0381,"ARG_OF_PERICENTER":95.6604,"MEAN_ANOMALY":264.5181,"EPHEMERIS_TYPE":0,"CLASSIFICATION_TYPE":"U","NORAD_CAT_ID":63215,"ELEMENT_SET_NO":999,"REV_AT_EPOCH":5486,"BSTAR":0.00070909,"MEAN_MOTION_DOT":0.00021046,"MEAN_MOTION_DDOT":0},{"OBJECT_NAME":"STARLINK-33928","OBJECT_ID":"2025-101K","EPOCH":"2026-03-09T03:03:54.342720","MEAN_MOTION":15.27605382,"ECCENTRICITY":0.00010088,"INCLINATION":43.001,"RA_OF_ASC_NODE":0.7654,"ARG_OF_PERICENTER":269.0947,"MEAN_ANOMALY":90.9789,"EPHEMERIS_TYPE":0,"CLASSIFICATION_TYPE":"U","NORAD_CAT_ID":64003,"ELEMENT_SET_NO":999,"REV_AT_EPOCH":4697,"BSTAR":0.00073480393,"MEAN_MOTION_DOT":0.00020029,"MEAN_MOTION_DDOT":0}]
